COMMENT,ORIGINATOR,NORAD_CAT_ID,OBJECT_NAME,OBJECT_TYPE,CLASSIFICATION_TYPE,INTLDES,EPOCH,EPOCH_MICROSECONDS,MEAN_MOTION,ECCENTRICITY,INCLINATION,RA_OF_ASC_NODE,ARG_OF_PERICENTER,MEAN_ANOMALY,EPHEMERIS_TYPE,ELEMENT_SET_NO,REV_AT_EPOCH,BSTAR,MEAN_MOTION_DOT,MEAN_MOTION_DDOT,FILE,TLE_LINE0,TLE_LINE1,TLE_LINE2,OBJECT_ID,OBJECT_NUMBER,SEMIMAJOR_AXIS,PERIOD,APOGEE,PERIGEE,DECAYED,date
GENERATED VIA SPACETRACK.ORG API,18 SPCS,46301,SPACEBEE-20,PAYLOAD,U,20061AF,2023/3/6 4:26,913952,15.39404319,0.0002424,97.421,140.9416,255.5637,104.5339,0,999,13843,0.0040947,0.00163385,0,3852426,0 SPACEBEE-20,1 46301U 20061AF  23065.18498743  .00163385  00000-0  40947-2 0  9995,2 46301  97.4210 140.9416 0002424 255.5637 104.5339 15.39404319138432,2020-061AF,46301,6826.007,93.543,449.526,446.217,1,
GENERATED VIA SPACETRACK.ORG API,18 SPCS,46301,SPACEBEE-20,PAYLOAD,U,20061AF,2023/3/6 4:26,913952,15.39404319,0.0002424,97.421,140.9416,255.5637,104.5339,0,999,13843,0.0040947,0.00163385,0,3853141,0 SPACEBEE-20,1 46301U 20061AF  23065.18498743  .00163385  00000-0  40947-2 0  9995,2 46301  97.4210 140.9416 0002424 255.5637 104.5339 15.39404319138432,2020-061AF,46301,6826.007,93.543,449.526,446.217,1,
GENERATED VIA SPACETRACK.ORG API,18 SPCS,46301,SPACEBEE-20,PAYLOAD,U,20061AF,2023/3/7 3:50,2976,15.39711172,0.0002512,97.4203,141.9294,258.4244,101.672,0,999,13858,0.004186,0.00168833,0,3853377,0 SPACEBEE-20,1 46301U 20061AF  23066.15993059  .00168833  00000-0  41860-2 0  9991,2 46301  97.4203 141.9294 0002512 258.4244 101.6720 15.39711172138589,2020-061AF,46301,6825.1,93.524,448.679,445.25,1,
GENERATED VIA SPACETRACK.ORG API,18 SPCS,46301,SPACEBEE-20,PAYLOAD,U,20061AF,2023/3/7 22:33,835808,15.39948881,0.000254,97.4205,142.7205,252.9802,107.1165,0,999,13870,0.003643,0.00147659,0,3854072,0 SPACEBEE-20,1 46301U 20061AF  23066.93974347  .00147659  00000-0  36430-2 0  9996,2 46301  97.4205 142.7205 0002540 252.9802 107.1165 15.39948881138709,2020-061AF,46301,6824.397,93.51,447.996,444.529,1,
GENERATED VIA SPACETRACK.ORG API,18 SPCS,46301,SPACEBEE-20,PAYLOAD,U,20061AF,2023/3/8 3:13,143776,15.4001211,0.0002583,97.4203,142.9178,252.9899,107.1064,0,999,13873,0.0037996,0.00154467,0,3854235,0 SPACEBEE-20,1 46301U 20061AF  23067.13467759  .00154467  00000-0  37996-2 0  9996,2 46301  97.4203 142.9178 0002583 252.9899 107.1064 15.40012110138731,2020-061AF,46301,6824.211,93.506,447.838,444.313,1,
GENERATED VIA SPACETRACK.ORG API,18 SPCS,46301,SPACEBEE-20,PAYLOAD,U,20061AF,2023/3/8 4:47,22656,15.40034205,0.0002524,97.42,142.9841,252.3471,107.7499,0,999,13874,0.0034606,0.00140524,0,3855077,0 SPACEBEE-20,1 46301U 20061AF  23067.19965304  .00140524  00000-0  34606-2 0  9995,2 46301  97.4200 142.9841 0002524 252.3471 107.7499 15.40034205138748,2020-061AF,46301,6824.145,93.504,447.733,444.288,1,
GENERATED VIA SPACETRACK.ORG API,18 SPCS,46301,SPACEBEE-20,PAYLOAD,U,20061AF,2023/3/9 5:44,724672,15.40350521,0.0002647,97.4194,144.0388,251.746,108.3499,0,999,13890,0.0039351,0.00161923,0,3855291,0 SPACEBEE-20,1 46301U 20061AF  23068.23916348  .00161923  00000-0  39351-2 0  9993,2 46301  97.4194 144.0388 0002647 251.7460 108.3499 15.40350521138903,2020-061AF,46301,6823.211,93.485,446.882,443.27,1,
GENERATED VIA SPACETRACK.ORG API,18 SPCS,46301,SPACEBEE-20,PAYLOAD,U,20061AF,2023/3/9 18:12,166880,15.40537762,0.0002695,97.4194,144.5665,252.9054,107.1897,0,999,13898,0.0044659,0.00185479,0,3855748,0 SPACEBEE-20,1 46301U 20061AF  23068.75883295  .00185479  00000-0  44659-2 0  9993,2 46301  97.4194 144.5665 0002695 252.9054 107.1897 15.40537762138982,2020-061AF,46301,6822.658,93.474,446.362,442.684,1,
GENERATED VIA SPACETRACK.ORG API,18 SPCS,46301,SPACEBEE-20,PAYLOAD,U,20061AF,2023/3/9 21:19,117856,15.40581833,0.0002749,97.4192,144.6982,253.6242,106.4702,0,999,13900,0.004162,0.00172817,0,3855951,0 SPACEBEE-20,1 46301U 20061AF  23068.88873979  .00172817  00000-0  41620-2 0  9992,2 46301  97.4192 144.6982 0002749 253.6242 106.4702 15.40581833139009,2020-061AF,46301,6822.528,93.471,446.269,442.517,1,
GENERATED VIA SPACETRACK.ORG API,18 SPCS,46301,SPACEBEE-20,PAYLOAD,U,20061AF,2023/3/10 16:02,219296,15.40837351,0.000268,97.4188,145.4894,251.7422,108.3533,0,999,13912,0.003599,0.00150247,0,3856842,0 SPACEBEE-20,1 46301U 20061AF  23069.66810439  .00150247  00000-0  35990-2 0  9997,2 46301  97.4188 145.4894 0002680 251.7422 108.3533 15.40837351139123,2020-061AF,46301,6821.774,93.456,445.467,441.81,1,
GENERATED VIA SPACETRACK.ORG API,18 SPCS,46301,SPACEBEE-20,PAYLOAD,U,20061AF,2023/3/10 16:02,219296,15.40837351,0.000268,97.4188,145.4894,251.7422,108.3533,0,999,13912,0.003599,0.00150247,0,3856975,0 SPACEBEE-20,1 46301U 20061AF  23069.66810439  .00150247  00000-0  35990-2 0  9997,2 46301  97.4188 145.4894 0002680 251.7422 108.3533 15.40837351139123,2020-061AF,46301,6821.774,93.456,445.467,441.81,1,
GENERATED VIA SPACETRACK.ORG API,18 SPCS,46301,SPACEBEE-20,PAYLOAD,U,20061AF,2023/3/11 4:30,379584,15.4102024,0.0002736,97.4186,146.0169,250.9785,109.1165,0,999,13920,0.0040328,0.00169818,0,3857484,0 SPACEBEE-20,1 46301U 20061AF  23070.18760856  .00169818  00000-0  40328-2 0  9998,2 46301  97.4186 146.0169 0002736 250.9785 109.1165 15.41020240139209,2020-061AF,46301,6821.234,93.445,444.965,441.233,1,
GENERATED VIA SPACETRACK.ORG API,18 SPCS,46301,SPACEBEE-20,PAYLOAD,U,20061AF,2023/3/11 4:30,379584,15.4102024,0.0002736,97.4186,146.0169,250.9785,109.1165,0,999,13920,0.0040328,0.00169818,0,3857581,0 SPACEBEE-20,1 46301U 20061AF  23070.18760856  .00169818  00000-0  40328-2 0  9998,2 46301  97.4186 146.0169 0002736 250.9785 109.1165 15.41020240139209,2020-061AF,46301,6821.234,93.445,444.965,441.233,1,
GENERATED VIA SPACETRACK.ORG API,18 SPCS,46301,SPACEBEE-20,PAYLOAD,U,20061AF,2023/3/12 3:52,377760,15.41307513,0.0002888,97.4182,147.0058,251.548,108.5452,0,999,13935,0.0032787,0.00138803,0,3858074,0 SPACEBEE-20,1 46301U 20061AF  23071.16153215  .00138803  00000-0  32787-2 0  9992,2 46301  97.4182 147.0058 0002888 251.5480 108.5452 15.41307513139359,2020-061AF,46301,6820.386,93.427,444.221,440.282,1,
GENERATED VIA SPACETRACK.ORG API,18 SPCS,46301,SPACEBEE-20,PAYLOAD,U,20061AF,2023/3/12 3:52,377760,15.41307513,0.0002888,97.4182,147.0058,251.548,108.5452,0,999,13935,0.0032787,0.00138803,0,3858534,0 SPACEBEE-20,1 46301U 20061AF  23071.16153215  .00138803  00000-0  32787-2 0  9992,2 46301  97.4182 147.0058 0002888 251.5480 108.5452 15.41307513139359,2020-061AF,46301,6820.386,93.427,444.221,440.282,1,
GENERATED VIA SPACETRACK.ORG API,18 SPCS,46301,SPACEBEE-20,PAYLOAD,U,20061AF,2023/3/12 14:46,549664,15.41448007,0.0002827,97.418,147.4681,253.0163,107.0774,0,999,13942,0.0037785,0.00161188,0,3858639,0 SPACEBEE-20,1 46301U 20061AF  23071.61596701  .00161188  00000-0  37785-2 0  9998,2 46301  97.4180 147.4681 0002827 253.0163 107.0774 15.41448007139424,2020-061AF,46301,6819.972,93.419,443.765,439.909,1,
GENERATED VIA SPACETRACK.ORG API,18 SPCS,46301,SPACEBEE-20,PAYLOAD,U,20061AF,2023/3/12 14:46,549664,15.41448007,0.0002827,97.418,147.4681,253.0163,107.0774,0,999,13942,0.0037785,0.00161188,0,3858743,0 SPACEBEE-20,1 46301U 20061AF  23071.61596701  .00161188  00000-0  37785-2 0  9998,2 46301  97.4180 147.4681 0002827 253.0163 107.0774 15.41448007139424,2020-061AF,46301,6819.972,93.419,443.765,439.909,1,
GENERATED VIA SPACETRACK.ORG API,18 SPCS,46301,SPACEBEE-20,PAYLOAD,U,20061AF,2023/3/13 6:21,629984,15.41635472,0.0002993,97.4175,148.1267,252.1653,107.9268,0,999,13952,0.0029102,0.00124304,0,3859240,0 SPACEBEE-20,1 46301U 20061AF  23072.26508831  .00124304  00000-0  29102-2 0  9990,2 46301  97.4175 148.1267 0002993 252.1653 107.9268 15.41635472139526,2020-061AF,46301,6819.419,93.407,443.325,439.243,1,
GENERATED VIA SPACETRACK.ORG API,18 SPCS,46301,SPACEBEE-20,PAYLOAD,U,20061AF,2023/3/13 6:21,629984,15.41635472,0.0002993,97.4175,148.1267,252.1653,107.9268,0,999,13952,0.0029102,0.00124304,0,3859425,0 SPACEBEE-20,1 46301U 20061AF  23072.26508831  .00124304  00000-0  29102-2 0  9990,2 46301  97.4175 148.1267 0002993 252.1653 107.9268 15.41635472139526,2020-061AF,46301,6819.419,93.407,443.325,439.243,1,
GENERATED VIA SPACETRACK.ORG API,18 SPCS,46301,SPACEBEE-20,PAYLOAD,U,20061AF,2023/3/14 4:10,138592,15.41869006,0.0003091,97.4173,149.0501,251.4311,108.6601,0,999,13966,0.0032616,0.00140707,0,3860203,0 SPACEBEE-20,1 46301U 20061AF  23073.17374003  .00140707  00000-0  32616-2 0  9992,2 46301  97.4173 149.0501 0003091 251.4311 108.6601 15.41869006139664,2020-061AF,46301,6818.73,93.393,442.703,438.488,1,
GENERATED VIA SPACETRACK.ORG API,18 SPCS,46301,SPACEBEE-20,PAYLOAD,U,20061AF,2023/3/14 4:10,138592,15.41869006,0.0003091,97.4173,149.0501,251.4311,108.6601,0,999,13966,0.0032616,0.00140707,0,3860373,0 SPACEBEE-20,1 46301U 20061AF  23073.17374003  .00140707  00000-0  32616-2 0  9992,2 46301  97.4173 149.0501 0003091 251.4311 108.6601 15.41869006139664,2020-061AF,46301,6818.73,93.393,442.703,438.488,1,
GENERATED VIA SPACETRACK.ORG API,18 SPCS,46301,SPACEBEE-20,PAYLOAD,U,20061AF,2023/3/14 15:04,317152,15.41994646,0.000306,97.4176,149.5131,251.4615,108.6299,0,999,13973,0.0035346,0.00153381,0,3860643,0 SPACEBEE-20,1 46301U 20061AF  23073.62801293  .00153381  00000-0  35346-2 0  9993,2 46301  97.4176 149.5131 0003060 251.4615 108.6299 15.41994646139734,2020-061AF,46301,6818.36,93.386,442.311,438.139,1,
GENERATED VIA SPACETRACK.ORG API,18 SPCS,46301,SPACEBEE-20,PAYLOAD,U,20061AF,2023/3/15 3:31,796992,15.42177901,0.0003075,97.4176,150.0405,248.8139,111.2779,0,999,13981,0.0037543,0.00164145,0,3860871,0 SPACEBEE-20,1 46301U 20061AF  23074.14712728  .00164145  00000-0  37543-2 0  9996,2 46301  97.4176 150.0405 0003075 248.8139 111.2779 15.42177901139812,2020-061AF,46301,6817.82,93.374,441.781,437.588,1,
